[{"OBJECT_NAME":"DAMPE","OBJECT_ID":"2015-078A","EPOCH":"2026-03-09T23:55:00.527232","MEAN_MOTION":15.30502084,"ECCENTRICITY":0.00138005,"INCLINATION":97.4588,"RA_OF_ASC_NODE":73.9866,"ARG_OF_PERICENTER":70.6942,"MEAN_ANOMALY":289.579,"EPHEMERIS_TYPE":0,"CLASSIFICATION_TYPE":"U","NORAD_CAT_ID":41173,"ELEMENT_SET_NO":999,"REV_AT_EPOCH":56937,"BSTAR":9.1158173e-5,"MEAN_MOTION_DOT":2.617e-5,"MEAN_MOTION_DDOT":0},{"OBJECT_NAME":"STARLINK-1316","OBJECT_ID":"2020-019BH","EPOCH":"2026-03-09T13:03:15.183072","MEAN_MOTION":15.30197836,"ECCENTRICITY":0.00013151,"INCLINATION":53.1611,"RA_OF_ASC_NODE":129.9786,"ARG_OF_PERICENTER":83.5347,"MEAN_ANOMALY":276.5804,"EPHEMERIS_TYPE":0,"CLASSIFICATION_TYPE":"U","NORAD_CAT_ID":45415,"ELEMENT_SET_NO":999,"REV_AT_EPOCH":32997,"BSTAR":2.051712e-6,"MEAN_MOTION_DOT":-2.98e-6,"MEAN_MOTION_DDOT":0}]
